{
  "type": "FeatureCollection",
  "name": "jingzhang_green_system_concept",
  "features": [
    {
      "type": "Feature",
      "id": "GREEN-001",
      "properties": {
        "id": "GREEN-001",
        "layer": "GREEN_SPACE",
        "land_use_code": "1401",
        "name_zh": "京张遗址公园活力带（概念）",
        "source_type": "agent_generated_design",
        "confidence": "low",
        "official_boundary": false,
        "geometry_role": "provisional_constraint",
        "source_id": "DATA-SRC-PROVISIONAL-BOUNDARIES-20260605",
        "derived_from_source_ids": [
          "DATA-SRC-OFFICIAL-ANNOUNCEMENT-20260509"
        ],
        "area_sqm_declared": 1400000,
        "usage_note": "概念绿地系统，面积按绿地率0.15目标概念对齐；官方边界与绿地系统确定后重算。"
      },
      "geometry": {
        "type": "Polygon",
        "coordinates": [
          [
            [
              116.3452,
              39.94
            ],
            [
              116.347,
              39.94
            ],
            [
              116.347,
              40.0245
            ],
            [
              116.3452,
              40.0245
            ],
            [
              116.3452,
              39.94
            ]
          ]
        ]
      }
    },
    {
      "type": "Feature",
      "id": "GREEN-002",
      "properties": {
        "id": "GREEN-002",
        "layer": "GREEN_SPACE",
        "land_use_code": "1401",
        "name_zh": "清河低碳创新廊（概念）",
        "source_type": "agent_generated_design",
        "confidence": "low",
        "official_boundary": false,
        "geometry_role": "provisional_constraint",
        "source_id": "DATA-SRC-PROVISIONAL-BOUNDARIES-20260605",
        "derived_from_source_ids": [
          "DATA-SRC-OFFICIAL-ANNOUNCEMENT-20260509"
        ],
        "area_sqm_declared": 311923.808,
        "usage_note": "概念绿地系统，面积按绿地率0.15目标概念对齐；官方边界与绿地系统确定后重算。"
      },
      "geometry": {
        "type": "Polygon",
        "coordinates": [
          [
            [
              116.343,
              40.0175
            ],
            [
              116.3452,
              40.0175
            ],
            [
              116.3452,
              40.0255
            ],
            [
              116.343,
              40.0255
            ],
            [
              116.343,
              40.0175
            ]
          ]
        ]
      }
    }
  ]
}
