{
  "type": "FeatureCollection",
  "name": "jingzhang_phasing_concept",
  "features": [
    {
      "type": "Feature",
      "id": "PHASE-001",
      "properties": {
        "id": "PHASE-001",
        "layer": "PHASE",
        "phase": "phase_1",
        "name_zh": "近期试点（2026-2028）：原点社区与大钟寺站公共空间先行",
        "source_type": "agent_generated_design",
        "confidence": "low",
        "official_boundary": false,
        "geometry_role": "provisional_constraint",
        "source_id": "DATA-SRC-PROVISIONAL-BOUNDARIES-20260605",
        "derived_from_source_ids": [
          "DATA-SRC-OFFICIAL-ANNOUNCEMENT-20260509"
        ],
        "area_sqm_declared": 3600000,
        "entry_gate": "正式控规、道路红线、权属与市政条件确认后进入相应阶段",
        "exit_rule": "每期达到评估阈值后复盘并公开，再进入下一期",
        "usage_note": "概念分期，不构成政府开发时序或实施承诺。"
      },
      "geometry": {
        "type": "Polygon",
        "coordinates": [
          [
            [
              116.342,
              39.944
            ],
            [
              116.355,
              39.944
            ],
            [
              116.355,
              39.9935
            ],
            [
              116.342,
              39.9935
            ],
            [
              116.342,
              39.944
            ]
          ]
        ]
      }
    },
    {
      "type": "Feature",
      "id": "PHASE-002",
      "properties": {
        "id": "PHASE-002",
        "layer": "PHASE",
        "phase": "phase_2",
        "name_zh": "中期更新（2028-2032）：众智园自主创新加速区与清河界面",
        "source_type": "agent_generated_design",
        "confidence": "low",
        "official_boundary": false,
        "geometry_role": "provisional_constraint",
        "source_id": "DATA-SRC-PROVISIONAL-BOUNDARIES-20260605",
        "derived_from_source_ids": [
          "DATA-SRC-OFFICIAL-ANNOUNCEMENT-20260509"
        ],
        "area_sqm_declared": 1900000,
        "entry_gate": "正式控规、道路红线、权属与市政条件确认后进入相应阶段",
        "exit_rule": "每期达到评估阈值后复盘并公开，再进入下一期",
        "usage_note": "概念分期，不构成政府开发时序或实施承诺。"
      },
      "geometry": {
        "type": "Polygon",
        "coordinates": [
          [
            [
              116.343,
              40.0075
            ],
            [
              116.354,
              40.0075
            ],
            [
              116.354,
              40.026
            ],
            [
              116.343,
              40.026
            ],
            [
              116.343,
              40.0075
            ]
          ]
        ]
      }
    },
    {
      "type": "Feature",
      "id": "PHASE-003",
      "properties": {
        "id": "PHASE-003",
        "layer": "PHASE",
        "phase": "phase_3",
        "name_zh": "长期治理（2032-2035）：全域风貌、运营体系与活动网络",
        "source_type": "agent_generated_design",
        "confidence": "low",
        "official_boundary": false,
        "geometry_role": "provisional_constraint",
        "source_id": "DATA-SRC-PROVISIONAL-BOUNDARIES-20260605",
        "derived_from_source_ids": [
          "DATA-SRC-OFFICIAL-ANNOUNCEMENT-20260509"
        ],
        "area_sqm_declared": 11412825.386,
        "entry_gate": "正式控规、道路红线、权属与市政条件确认后进入相应阶段",
        "exit_rule": "每期达到评估阈值后复盘并公开，再进入下一期",
        "usage_note": "概念分期，不构成政府开发时序或实施承诺。"
      },
      "geometry": {
        "type": "Polygon",
        "coordinates": [
          [
            [
              116.3407,
              39.939
            ],
            [
              116.3553,
              39.939
            ],
            [
              116.3553,
              39.965
            ],
            [
              116.3533,
              39.99
            ],
            [
              116.3553,
              40.0265
            ],
            [
              116.3427,
              40.0265
            ],
            [
              116.3417,
              40.006
            ],
            [
              116.3397,
              39.975
            ],
            [
              116.3407,
              39.939
            ]
          ]
        ]
      }
    }
  ]
}
