{
  "type": "FeatureCollection",
  "name": "jingzhang_mobility_network_concept",
  "features": [
    {
      "type": "Feature",
      "id": "ROAD-001",
      "properties": {
        "id": "ROAD-001",
        "layer": "ROAD_CENTERLINE",
        "road_class": "greenway",
        "name_zh": "京张智脉遗址公园慢行主廊",
        "source_type": "agent_generated_design",
        "confidence": "low",
        "official_boundary": false,
        "geometry_role": "provisional_constraint",
        "source_id": "DATA-SRC-PROVISIONAL-BOUNDARIES-20260605",
        "derived_from_source_ids": [
          "DATA-SRC-OFFICIAL-ANNOUNCEMENT-20260509"
        ],
        "usage_note": "概念廊道线位，不是道路红线或工程线位；待道路红线与交通组织复核。"
      },
      "geometry": {
        "type": "LineString",
        "coordinates": [
          [
            116.3461,
            39.941
          ],
          [
            116.3461,
            40.024
          ]
        ]
      }
    },
    {
      "type": "Feature",
      "id": "ROAD-002",
      "properties": {
        "id": "ROAD-002",
        "layer": "ROAD_CENTERLINE",
        "road_class": "collector",
        "name_zh": "五道口—清华东路西口联络线（概念）",
        "source_type": "agent_generated_design",
        "confidence": "low",
        "official_boundary": false,
        "geometry_role": "provisional_constraint",
        "source_id": "DATA-SRC-PROVISIONAL-BOUNDARIES-20260605",
        "derived_from_source_ids": [
          "DATA-SRC-OFFICIAL-ANNOUNCEMENT-20260509"
        ],
        "usage_note": "概念廊道线位，不是道路红线或工程线位；待道路红线与交通组织复核。"
      },
      "geometry": {
        "type": "LineString",
        "coordinates": [
          [
            116.3409,
            39.985
          ],
          [
            116.3551,
            39.985
          ]
        ]
      }
    },
    {
      "type": "Feature",
      "id": "ROAD-003",
      "properties": {
        "id": "ROAD-003",
        "layer": "ROAD_CENTERLINE",
        "road_class": "collector",
        "name_zh": "大钟寺站接驳联络线（概念）",
        "source_type": "agent_generated_design",
        "confidence": "low",
        "official_boundary": false,
        "geometry_role": "provisional_constraint",
        "source_id": "DATA-SRC-PROVISIONAL-BOUNDARIES-20260605",
        "derived_from_source_ids": [
          "DATA-SRC-OFFICIAL-ANNOUNCEMENT-20260509"
        ],
        "usage_note": "概念廊道线位，不是道路红线或工程线位；待道路红线与交通组织复核。"
      },
      "geometry": {
        "type": "LineString",
        "coordinates": [
          [
            116.3422,
            39.9472
          ],
          [
            116.3548,
            39.9472
          ]
        ]
      }
    },
    {
      "type": "Feature",
      "id": "ROAD-004",
      "properties": {
        "id": "ROAD-004",
        "layer": "ROAD_CENTERLINE",
        "road_class": "greenway",
        "name_zh": "清河低碳创新廊联络线（概念）",
        "source_type": "agent_generated_design",
        "confidence": "low",
        "official_boundary": false,
        "geometry_role": "provisional_constraint",
        "source_id": "DATA-SRC-PROVISIONAL-BOUNDARIES-20260605",
        "derived_from_source_ids": [
          "DATA-SRC-OFFICIAL-ANNOUNCEMENT-20260509"
        ],
        "usage_note": "概念廊道线位，不是道路红线或工程线位；待道路红线与交通组织复核。"
      },
      "geometry": {
        "type": "LineString",
        "coordinates": [
          [
            116.3432,
            40.021
          ],
          [
            116.3538,
            40.021
          ]
        ]
      }
    }
  ]
}
